0 COSMOS 1275 DEB
1 13464U 81053FL  13282.66306101  .00001453  00000-0  79512-3 0  8252
2 13464 082.9179 168.6276 0036670 314.4319 104.0795 14.11023542599247
0 COSMOS 1275 DEB
1 13464U 81053FL  13283.88104551  .00001804  00000-0  98900-3 0  8265
2 13464 082.9178 167.6660 0036560 310.7809 171.1045 14.11027567599416
0 COSMOS 1275 DEB
1 13464U 81053FL  13286.70393362  .00002430  00000-0  13352-2 0  8284
2 13464 082.9182 165.4376 0036574 302.2135 110.7987 14.11040138599811
0 COSMOS 1275 DEB
1 13464U 81053FL  13288.14186253  .00003572  00000-0  19660-2 0  8290
2 13464 082.9179 164.3024 0036534 297.8062 215.2790 14.11050271600016
0 COSMOS 1275 DEB
1 13464U 81053FL  13289.39850125  .00003177  00000-0  17474-2 0  8308
2 13464 082.9174 163.3105 0036505 293.9247 118.9050 14.11057409600197
0 COSMOS 1275 DEB
1 13464U 81053FL  13290.46261314  .00003203  00000-0  17615-2 0  8312
2 13464 082.9171 162.4705 0036475 290.6635 124.5076 14.11063849600344
0 COSMOS 1275 DEB
1 13464U 81053FL  13292.11292389  .00002963  00000-0  16291-2 0  8324
2 13464 082.9167 161.1676 0036398 285.6376 227.9704 14.11071829600570
0 COSMOS 1275 DEB
1 13464U 81053FL  13293.44126266  .00002786  00000-0  15309-2 0  8334
2 13464 082.9167 160.1187 0036164 281.6772 135.7808 14.11076066600763
0 COSMOS 1275 DEB
1 13464U 81053FL  13294.80305966  .00002627  00000-0  14431-2 0  8341
2 13464 082.9170 159.0435 0036003 277.5842 213.6123 14.11082302600951
0 COSMOS 1275 DEB
1 13464U 81053FL  13296.08580476  .00002726  00000-0  14976-2 0  8359
2 13464 082.9172 158.0306 0035892 273.6726 249.9514 14.11087393601134
